{
    "links": {
        "self": "http://www.neowsapp.com/rest/v1/neo/3719867?api_key=iIulBulltgU6a56xZRHN4H3l9WmuAYTsLGpBGhQ2"
    },
    "id": "3719867",
    "neo_reference_id": "3719867",
    "name": "(2015 KS57)",
    "designation": "2015 KS57",
    "nasa_jpl_url": "http://ssd.jpl.nasa.gov/sbdb.cgi?sstr=3719867",
    "absolute_magnitude_h": 26.3,
    "estimated_diameter": {
        "kilometers": {
            "estimated_diameter_min": 0.0146067964,
            "estimated_diameter_max": 0.0326617897
        },
        "meters": {
            "estimated_diameter_min": 14.6067964271,
            "estimated_diameter_max": 32.6617897446
        },
        "miles": {
            "estimated_diameter_min": 0.0090762397,
            "estimated_diameter_max": 0.020295089
        },
        "feet": {
            "estimated_diameter_min": 47.92256199,
            "estimated_diameter_max": 107.1581062656
        }
    },
    "is_potentially_hazardous_asteroid": false,
    "close_approach_data": [
        {
            "close_approach_date": "2015-06-19",
            "close_approach_date_full": "2015-Jun-19 02:00",
            "epoch_date_close_approach": 1434679200000,
            "relative_velocity": {
                "kilometers_per_second": "8.3047003362",
                "kilometers_per_hour": "29896.9212102182",
                "miles_per_hour": "18576.7841819825"
            },
            "miss_distance": {
                "astronomical": "0.0465542522",
                "lunar": "18.1096041058",
                "kilometers": "6964416.968562814",
                "miles": "4327488.0359782732"
            },
            "orbiting_body": "Earth"
        }
    ],
    "orbital_data": {
        "orbit_id": "8",
        "orbit_determination_date": "2017-04-06 08:33:32",
        "first_observation_date": "2015-05-21",
        "last_observation_date": "2015-06-14",
        "data_arc_in_days": 24,
        "observations_used": 22,
        "orbit_uncertainty": "8",
        "minimum_orbit_intersection": ".0397503",
        "jupiter_tisserand_invariant": "3.531",
        "epoch_osculation": "2457170.5",
        "eccentricity": ".51946263025733",
        "semi_major_axis": "2.132358982839378",
        "inclination": "4.154326542604304",
        "ascending_node_longitude": "247.3999362468841",
        "orbital_period": "1137.33631651163",
        "perihelion_distance": "1.02467817696079",
        "perihelion_argument": "42.33564684405678",
        "aphelion_distance": "3.240039788717966",
        "perihelion_time": "2457211.102661996661",
        "mean_anomaly": "347.1480773922438",
        "mean_motion": ".3165290642473904",
        "equinox": "J2000",
        "orbit_class": {
            "orbit_class_type": "AMO",
            "orbit_class_description": "Near-Earth asteroid orbits similar to that of 1221 Amor",
            "orbit_class_range": "1.017 AU < q (perihelion) < 1.3 AU"
        }
    },
    "is_sentry_object": false
}